{
  "links" : {
    "next" : "https://api.nasa.gov/neo/rest/v1/feed?start_date=2013-06-09&end_date=2013-06-09&detailed=true&api_key=t0TVs3DtDT2H8Oy2Zy8m2eVrNsAVKAexjcZXUckd",
    "prev" : "https://api.nasa.gov/neo/rest/v1/feed?start_date=2013-06-07&end_date=2013-06-07&detailed=true&api_key=t0TVs3DtDT2H8Oy2Zy8m2eVrNsAVKAexjcZXUckd",
    "self" : "https://api.nasa.gov/neo/rest/v1/feed?start_date=2013-06-08&end_date=2013-06-08&detailed=true&api_key=t0TVs3DtDT2H8Oy2Zy8m2eVrNsAVKAexjcZXUckd"
  },
  "element_count" : 11,
  "near_earth_objects" : {
    "2013-06-08" : [ {
      "links" : {
        "self" : "https://api.nasa.gov/neo/rest/v1/neo/3770988?api_key=t0TVs3DtDT2H8Oy2Zy8m2eVrNsAVKAexjcZXUckd"
      },
      "neo_reference_id" : "3770988",
      "name" : "(2017 EH1)",
      "nasa_jpl_url" : "http://ssd.jpl.nasa.gov/sbdb.cgi?sstr=3770988",
      "absolute_magnitude_h" : 23.3,
      "estimated_diameter" : {
        "kilometers" : {
          "estimated_diameter_min" : 0.058150704,
          "estimated_diameter_max" : 0.130028927
        },
        "meters" : {
          "estimated_diameter_min" : 58.1507039646,
          "estimated_diameter_max" : 130.0289270043
        },
        "miles" : {
          "estimated_diameter_min" : 0.0361331611,
          "estimated_diameter_max" : 0.0807962044
        },
        "feet" : {
          "estimated_diameter_min" : 190.7831555951,
          "estimated_diameter_max" : 426.6041048727
        }
      },
      "is_potentially_hazardous_asteroid" : false,
      "close_approach_data" : [ {
        "close_approach_date" : "2013-06-08",
        "epoch_date_close_approach" : 1370674800000,
        "relative_velocity" : {
          "kilometers_per_second" : "10.8739664646",
          "kilometers_per_hour" : "39146.2792727134",
          "miles_per_hour" : "24323.975584759"
        },
        "miss_distance" : {
          "astronomical" : "0.0844739777",
          "lunar" : "32.8603744507",
          "kilometers" : "12637127",
          "miles" : "7852346.5"
        },
        "orbiting_body" : "Earth"
      } ],
      "orbital_data" : {
        "orbit_id" : "11",
        "orbit_determination_date" : "2017-04-06 08:19:41",
        "orbit_uncertainty" : "4",
        "minimum_orbit_intersection" : ".0301707",
        "jupiter_tisserand_invariant" : "6.634",
        "epoch_osculation" : "2458000.5",
        "eccentricity" : ".4341872361325464",
        "semi_major_axis" : ".8827707373749474",
        "inclination" : "4.320042882172798",
        "ascending_node_longitude" : "134.7222683648135",
        "orbital_period" : "302.9495554683795",
        "perihelion_distance" : ".499482950775429",
        "perihelion_argument" : "254.8374502566169",
        "aphelion_distance" : "1.266058523974466",
        "perihelion_time" : "2458043.003990665603",
        "mean_anomaly" : "309.4918003231265",
        "mean_motion" : "1.188316647117758",
        "equinox" : "J2000"
      }
    }, {
      "links" : {
        "self" : "https://api.nasa.gov/neo/rest/v1/neo/3635077?api_key=t0TVs3DtDT2H8Oy2Zy8m2eVrNsAVKAexjcZXUckd"
      },
      "neo_reference_id" : "3635077",
      "name" : "(2013 HO11)",
      "nasa_jpl_url" : "http://ssd.jpl.nasa.gov/sbdb.cgi?sstr=3635077",
      "absolute_magnitude_h" : 23.0,
      "estimated_diameter" : {
        "kilometers" : {
          "estimated_diameter_min" : 0.0667659413,
          "estimated_diameter_max" : 0.1492931834
        },
        "meters" : {
          "estimated_diameter_min" : 66.7659413495,
          "estimated_diameter_max" : 149.2931834393
        },
        "miles" : {
          "estimated_diameter_min" : 0.0414864197,
          "estimated_diameter_max" : 0.0927664547
        },
        "feet" : {
          "estimated_diameter_min" : 219.0483710172,
          "estimated_diameter_max" : 489.807047955
        }
      },
      "is_potentially_hazardous_asteroid" : false,
      "close_approach_data" : [ {
        "close_approach_date" : "2013-06-08",
        "epoch_date_close_approach" : 1370674800000,
        "relative_velocity" : {
          "kilometers_per_second" : "5.1049655489",
          "kilometers_per_hour" : "18377.875976189",
          "miles_per_hour" : "11419.297436427"
        },
        "miss_distance" : {
          "astronomical" : "0.063335123",
          "lunar" : "24.6373615265",
          "kilometers" : "9474799",
          "miles" : "5887367.5"
        },
        "orbiting_body" : "Earth"
      } ],
      "orbital_data" : {
        "orbit_id" : "22",
        "orbit_determination_date" : "2017-04-06 08:46:03",
        "orbit_uncertainty" : "5",
        "minimum_orbit_intersection" : ".00595383",
        "jupiter_tisserand_invariant" : "5.286",
        "epoch_osculation" : "2458000.5",
        "eccentricity" : ".23408163157833",
        "semi_major_axis" : "1.194534303944522",
        "inclination" : "3.718684574314978",
        "ascending_node_longitude" : "59.05328027184399",
        "orbital_period" : "476.8660078567918",
        "perihelion_distance" : ".9149157651009031",
        "perihelion_argument" : "245.9293020818884",
        "aphelion_distance" : "1.47415284278814",
        "perihelion_time" : "2457924.766235596258",
        "mean_anomaly" : "57.17361845077212",
        "mean_motion" : ".7549290452007056",
        "equinox" : "J2000"
      }
    } ]
  }
}